[
    {
        "name": "United States",
        "dial_code": "+1",
        "code": "US",
        "maxLength": 10,
        "mask": "(###) ###-####",
        "identityMask": {
            "type": "ssn",
            "last4": "####",
            "full": "###-##-####"
        }
    },
    {
        "name": "Australia",
        "dial_code": "+61",
        "code": "AU",
        "maxLength": 9,
        "mask": "#-####-####"
    },
    {
        "name": "Brazil",
        "dial_code": "+55",
        "code": "BR",
        "maxLength": 11,
        "mask": "(##) #####-####"
    },
    {
        "name": "Cayman Islands",
        "dial_code": "+1345",
        "code": "KY",
        "maxLength": 7,
        "mask": "### ####"
    },
    {
        "name": "China",
        "dial_code": "+86",
        "code": "CN",
        "maxLength": 11,
        "mask": "(###)####-####"
    },
    {
        "name": "France",
        "dial_code": "+33",
        "code": "FR",
        "maxLength": 9,
        "mask": "(###)###-###"
    },
    {
        "name": "Germany",
        "dial_code": "+49",
        "code": "DE",
        "maxLength": 11,
        "mask": "(####)###-####"
    },
    {
        "name": "Hong Kong",
        "dial_code": "+852",
        "code": "HK",
        "maxLength": 8,
        "mask": "####-####"
    },
    {
        "name": "India",
        "dial_code": "+91",
        "code": "IN",
        "maxLength": 10,
        "mask": "##########"
    },
    {
        "name": "Israel",
        "dial_code": "+972",
        "code": "IL",
        "maxLength": 9,
        "mask": "### #### ##"
    },
    {
        "name": "Poland",
        "dial_code": "+48",
        "code": "PL",
        "maxLength": 9,
        "mask": "(###)###-###"
    },
    {
        "name": "Panama",
        "dial_code": "+507",
        "code": "PA",
        "maxLength": 7,
        "mask": "###-####"
    },
    {
        "name": "Singapore",
        "dial_code": "+65",
        "code": "SG",
        "maxLength": 8,
        "mask": "####-####"
    },
    {
        "name": "United Kingdom",
        "dial_code": "+44",
        "code": "GB",
        "maxLength": 10,
        "mask": "## #### ####"
    },
    {
        "name": "Ukraine",
        "dial_code": "+380",
        "code": "UA",
        "maxLength": 9,
        "mask": "## ### ## ##"
    },
    {
        "name": "Vietnam",
        "dial_code": "+84",
        "code": "VN",
        "maxLength": 9,
        "mask": "#########"
    }
]